[{"OBJECT_NAME":"KUIPER-00155","OBJECT_ID":"2025-217N","EPOCH":"2026-03-03T05:37:31.533600","MEAN_MOTION":15.22955077,"ECCENTRICITY":0.00055978,"INCLINATION":51.8781,"RA_OF_ASC_NODE":42.0505,"ARG_OF_PERICENTER":309.8666,"MEAN_ANOMALY":50.1822,"EPHEMERIS_TYPE":0,"CLASSIFICATION_TYPE":"U","NORAD_CAT_ID":65774,"ELEMENT_SET_NO":999,"REV_AT_EPOCH":2433,"BSTAR":-4.8329358e-5,"MEAN_MOTION_DOT":-1.487e-5,"MEAN_MOTION_DDOT":0},{"OBJECT_NAME":"KUIPER-00156","OBJECT_ID":"2025-217P","EPOCH":"2026-03-03T09:18:47.173536","MEAN_MOTION":14.79950629,"ECCENTRICITY":7.773e-5,"INCLINATION":51.9031,"RA_OF_ASC_NODE":53.488,"ARG_OF_PERICENTER":98.4996,"MEAN_ANOMALY":261.6054,"EPHEMERIS_TYPE":0,"CLASSIFICATION_TYPE":"U","NORAD_CAT_ID":65775,"ELEMENT_SET_NO":999,"REV_AT_EPOCH":2418,"BSTAR":0.00071060955,"MEAN_MOTION_DOT":5.202e-5,"MEAN_MOTION_DDOT":0},{"OBJECT_NAME":"KUIPER-00158","OBJECT_ID":"2025-217Q","EPOCH":"2026-03-03T09:24:22.052160","MEAN_MOTION":14.80460482,"ECCENTRICITY":0.00010729,"INCLINATION":51.8968,"RA_OF_ASC_NODE":73.3382,"ARG_OF_PERICENTER":37.1896,"MEAN_ANOMALY":322.914,"EPHEMERIS_TYPE":0,"CLASSIFICATION_TYPE":"U","NORAD_CAT_ID":65776,"ELEMENT_SET_NO":999,"REV_AT_EPOCH":2391,"BSTAR":0.00090903073,"MEAN_MOTION_DOT":6.802e-5,"MEAN_MOTION_DDOT":0},{"OBJECT_NAME":"KUIPER-00163","OBJECT_ID":"2025-217R","EPOCH":"2026-03-03T14:00:03.000384","MEAN_MOTION":14.89983154,"ECCENTRICITY":0.0001832,"INCLINATION":51.8963,"RA_OF_ASC_NODE":74.5041,"ARG_OF_PERICENTER":78.6339,"MEAN_ANOMALY":131.2799,"EPHEMERIS_TYPE":0,"CLASSIFICATION_TYPE":"U","NORAD_CAT_ID":65777,"ELEMENT_SET_NO":999,"REV_AT_EPOCH":525,"BSTAR":0.0037500583,"MEAN_MOTION_DOT":0.00036467,"MEAN_MOTION_DDOT":0},{"OBJECT_NAME":"KUIPER-00165","OBJECT_ID":"2025-217S","EPOCH":"2026-03-03T10:40:32.699424","MEAN_MOTION":14.79986682,"ECCENTRICITY":0.00010128,"INCLINATION":51.9005,"RA_OF_ASC_NODE":63.2119,"ARG_OF_PERICENTER":110.7749,"MEAN_ANOMALY":249.3322,"EPHEMERIS_TYPE":0,"CLASSIFICATION_TYPE":"U","NORAD_CAT_ID":65778,"ELEMENT_SET_NO":999,"REV_AT_EPOCH":2405,"BSTAR":0.0017849029,"MEAN_MOTION_DOT":0.0001343,"MEAN_MOTION_DDOT":0},{"OBJECT_NAME":"KUIPER-00166","OBJECT_ID":"2025-217T","EPOCH":"2026-03-03T08:34:11.084736","MEAN_MOTION":14.79934324,"ECCENTRICITY":8.022e-5,"INCLINATION":51.9037,"RA_OF_ASC_NODE":51.1221,"ARG_OF_PERICENTER":110.8376,"MEAN_ANOMALY":249.2673,"EPHEMERIS_TYPE":0,"CLASSIFICATION_TYPE":"U","NORAD_CAT_ID":65779,"ELEMENT_SET_NO":999,"REV_AT_EPOCH":2421,"BSTAR":0.0032444918,"MEAN_MOTION_DOT":0.00024604,"MEAN_MOTION_DDOT":0},{"OBJECT_NAME":"KUIPER-00167","OBJECT_ID":"2025-217U","EPOCH":"2026-03-03T07:10:36.893568","MEAN_MOTION":14.79876642,"ECCENTRICITY":3.423e-5,"INCLINATION":51.8969,"RA_OF_ASC_NODE":73.8272,"ARG_OF_PERICENTER":27.1073,"MEAN_ANOMALY":332.9907,"EPHEMERIS_TYPE":0,"CLASSIFICATION_TYPE":"U","NORAD_CAT_ID":65780,"ELEMENT_SET_NO":999,"REV_AT_EPOCH":2389,"BSTAR":0.00068343334,"MEAN_MOTION_DOT":4.986e-5,"MEAN_MOTION_DDOT":0},{"OBJECT_NAME":"KUIPER-00168","OBJECT_ID":"2025-217V","EPOCH":"2026-03-03T04:23:07.845216","MEAN_MOTION":14.79931355,"ECCENTRICITY":8.948e-5,"INCLINATION":51.9013,"RA_OF_ASC_NODE":56.8725,"ARG_OF_PERICENTER":82.0309,"MEAN_ANOMALY":278.0755,"EPHEMERIS_TYPE":0,"CLASSIFICATION_TYPE":"U","NORAD_CAT_ID":65781,"ELEMENT_SET_NO":999,"REV_AT_EPOCH":2412,"BSTAR":7.4252856e-5,"MEAN_MOTION_DOT":3.45e-6,"MEAN_MOTION_DDOT":0},{"OBJECT_NAME":"KUIPER-00169","OBJECT_ID":"2025-217W","EPOCH":"2026-03-03T09:07:51.513312","MEAN_MOTION":14.79784099,"ECCENTRICITY":7.297e-5,"INCLINATION":51.9012,"RA_OF_ASC_NODE":61.0064,"ARG_OF_PERICENTER":93.2359,"MEAN_ANOMALY":266.8687,"EPHEMERIS_TYPE":0,"CLASSIFICATION_TYPE":"U","NORAD_CAT_ID":65782,"ELEMENT_SET_NO":999,"REV_AT_EPOCH":2408,"BSTAR":0.00072585303,"MEAN_MOTION_DOT":5.297e-5,"MEAN_MOTION_DDOT":0},{"OBJECT_NAME":"KUIPER-00170","OBJECT_ID":"2025-217X","EPOCH":"2026-03-03T08:58:49.086336","MEAN_MOTION":14.79924611,"ECCENTRICITY":7.719e-5,"INCLINATION":51.8987,"RA_OF_ASC_NODE":66.0117,"ARG_OF_PERICENTER":81.6557,"MEAN_ANOMALY":278.4493,"EPHEMERIS_TYPE":0,"CLASSIFICATION_TYPE":"U","NORAD_CAT_ID":65783,"ELEMENT_SET_NO":999,"REV_AT_EPOCH":2401,"BSTAR":0.00052720591,"MEAN_MOTION_DOT":3.799e-5,"MEAN_MOTION_DDOT":0},{"OBJECT_NAME":"KUIPER-00172","OBJECT_ID":"2025-217Z","EPOCH":"2026-03-03T14:00:03.000384","MEAN_MOTION":14.91975151,"ECCENTRICITY":0.00030297,"INCLINATION":51.895,"RA_OF_ASC_NODE":45.9896,"ARG_OF_PERICENTER":303.6987,"MEAN_ANOMALY":275.034,"EPHEMERIS_TYPE":0,"CLASSIFICATION_TYPE":"U","NORAD_CAT_ID":65785,"ELEMENT_SET_NO":999,"REV_AT_EPOCH":280,"BSTAR":-0.18689427,"MEAN_MOTION_DOT":-0.01740925,"MEAN_MOTION_DDOT":0},{"OBJECT_NAME":"KUIPER-00173","OBJECT_ID":"2025-217AA","EPOCH":"2026-03-03T09:58:46.128288","MEAN_MOTION":14.82255953,"ECCENTRICITY":0.00014086,"INCLINATION":51.9016,"RA_OF_ASC_NODE":60.1713,"ARG_OF_PERICENTER":131.7345,"MEAN_ANOMALY":228.3739,"EPHEMERIS_TYPE":0,"CLASSIFICATION_TYPE":"U","NORAD_CAT_ID":65786,"ELEMENT_SET_NO":999,"REV_AT_EPOCH":2409,"BSTAR":0.0002132429,"MEAN_MOTION_DOT":1.493e-5,"MEAN_MOTION_DDOT":0},{"OBJECT_NAME":"KUIPER-00174","OBJECT_ID":"2025-217AB","EPOCH":"2026-03-03T08:26:17.371680","MEAN_MOTION":14.79934879,"ECCENTRICITY":5.927e-5,"INCLINATION":51.9031,"RA_OF_ASC_NODE":56.1498,"ARG_OF_PERICENTER":80.6654,"MEAN_ANOMALY":279.4375,"EPHEMERIS_TYPE":0,"CLASSIFICATION_TYPE":"U","NORAD_CAT_ID":65787,"ELEMENT_SET_NO":999,"REV_AT_EPOCH":2414,"BSTAR":-0.0029428564,"MEAN_MOTION_DOT":-0.00022581,"MEAN_MOTION_DDOT":0},{"OBJECT_NAME":"KUIPER-00176","OBJECT_ID":"2025-217AC","EPOCH":"2026-03-03T09:39:58.635072","MEAN_MOTION":14.79983666,"ECCENTRICITY":8.849e-5,"INCLINATION":51.8995,"RA_OF_ASC_NODE":70.8988,"ARG_OF_PERICENTER":62.4412,"MEAN_ANOMALY":297.6641,"EPHEMERIS_TYPE":0,"CLASSIFICATION_TYPE":"U","NORAD_CAT_ID":65788,"ELEMENT_SET_NO":999,"REV_AT_EPOCH":2394,"BSTAR":0.00073000378,"MEAN_MOTION_DOT":5.355e-5,"MEAN_MOTION_DDOT":0},{"OBJECT_NAME":"KUIPER-00101","OBJECT_ID":"2025-228A","EPOCH":"2026-03-03T08:20:24.499392","MEAN_MOTION":14.79931306,"ECCENTRICITY":7.161e-5,"INCLINATION":51.8999,"RA_OF_ASC_NODE":28.6221,"ARG_OF_PERICENTER":113.0169,"MEAN_ANOMALY":247.0869,"EPHEMERIS_TYPE":0,"CLASSIFICATION_TYPE":"U","NORAD_CAT_ID":65947,"ELEMENT_SET_NO":999,"REV_AT_EPOCH":2229,"BSTAR":-0.0002971717,"MEAN_MOTION_DOT":-2.486e-5,"MEAN_MOTION_DDOT":0},{"OBJECT_NAME":"KUIPER-00113","OBJECT_ID":"2025-228B","EPOCH":"2026-03-03T02:47:49.024032","MEAN_MOTION":14.79953844,"ECCENTRICITY":8.406e-5,"INCLINATION":51.8994,"RA_OF_ASC_NODE":24.6611,"ARG_OF_PERICENTER":89.2903,"MEAN_ANOMALY":270.8156,"EPHEMERIS_TYPE":0,"CLASSIFICATION_TYPE":"U","NORAD_CAT_ID":65948,"ELEMENT_SET_NO":999,"REV_AT_EPOCH":2232,"BSTAR":0.00079853764,"MEAN_MOTION_DOT":5.875e-5,"MEAN_MOTION_DDOT":0},{"OBJECT_NAME":"KUIPER-00117","OBJECT_ID":"2025-228C","EPOCH":"2026-03-03T03:32:35.824704","MEAN_MOTION":14.79940698,"ECCENTRICITY":9.912e-5,"INCLINATION":51.8993,"RA_OF_ASC_NODE":27.0265,"ARG_OF_PERICENTER":79.1139,"MEAN_ANOMALY":280.9935,"EPHEMERIS_TYPE":0,"CLASSIFICATION_TYPE":"U","NORAD_CAT_ID":65949,"ELEMENT_SET_NO":999,"REV_AT_EPOCH":2229,"BSTAR":2.4521504e-5,"MEAN_MOTION_DOT":-3.4e-7,"MEAN_MOTION_DDOT":0}]
