KUIPER-00155            
1 65774U 25217N   26062.23439275 -.00001487  00000+0 -48329-4 0  9998
2 65774  51.8781  42.0505 0005597 309.8666  50.1822 15.22955077 24334
KUIPER-00156            
1 65775U 25217P   26062.38804599  .00005202  00000+0  71061-3 0  9995
2 65775  51.9031  53.4880 0000777  98.4996 261.6054 14.79950629 24186
KUIPER-00158            
1 65776U 25217Q   26062.39192190  .00006802  00000+0  90903-3 0  9997
2 65776  51.8968  73.3382 0001072  37.1896 322.9140 14.80460482 23913
KUIPER-00163            
1 65777U 25217R   26062.58336806  .00036467  00000+0  37501-2 0  9997
2 65777  51.8963  74.5041 0001832  78.6339 131.2799 14.89983154  5253
KUIPER-00165            
1 65778U 25217S   26062.44482291  .00013430  00000+0  17849-2 0  9991
2 65778  51.9005  63.2119 0001012 110.7749 249.3322 14.79986682 24056
KUIPER-00166            
1 65779U 25217T   26062.35707274  .00024604  00000+0  32445-2 0  9997
2 65779  51.9037  51.1221 0000802 110.8376 249.2673 14.79934324 24217
KUIPER-00167            
1 65780U 25217U   26062.29903812  .00004986  00000+0  68343-3 0  9996
2 65780  51.8969  73.8272 0000342  27.1073 332.9907 14.79876642 23893
KUIPER-00168            
1 65781U 25217V   26062.18272969  .00000345  00000+0  74253-4 0  9990
2 65781  51.9013  56.8725 0000894  82.0309 278.0755 14.79931355 24124
KUIPER-00169            
1 65782U 25217W   26062.38045733  .00005297  00000+0  72585-3 0  9996
2 65782  51.9012  61.0064 0000729  93.2359 266.8687 14.79784099 24089
KUIPER-00170            
1 65783U 25217X   26062.37417924  .00003799  00000+0  52721-3 0  9996
2 65783  51.8987  66.0117 0000771  81.6557 278.4493 14.79924611 24015
KUIPER-00172            
1 65785U 25217Z   26062.58336806 -.01740925  00000+0 -18689+0 0  9993
2 65785  51.8950  45.9896 0003029 303.6987 275.0340 14.91975151  2806
KUIPER-00173            
1 65786U 25217AA  26062.41581167  .00001493  00000+0  21324-3 0  9999
2 65786  51.9016  60.1713 0001408 131.7345 228.3739 14.82255953 24094
KUIPER-00174            
1 65787U 25217AB  26062.35158995 -.00022581  00000+0 -29429-2 0  9998
2 65787  51.9031  56.1498 0000592  80.6654 279.4375 14.79934879 24141
KUIPER-00176            
1 65788U 25217AC  26062.40276198  .00005355  00000+0  73000-3 0  9994
2 65788  51.8995  70.8988 0000884  62.4412 297.6641 14.79983666 23944
KUIPER-00101            
1 65947U 25228A   26062.34750578 -.00002486  00000+0 -29717-3 0  9995
2 65947  51.8999  28.6221 0000716 113.0169 247.0869 14.79931306 22294
KUIPER-00113            
1 65948U 25228B   26062.11653963  .00005875  00000+0  79854-3 0  9991
2 65948  51.8994  24.6611 0000840  89.2903 270.8156 14.79953844 22325
KUIPER-00117            
1 65949U 25228C   26062.14763686 -.00000034  00000+0  24522-4 0  9995
2 65949  51.8993  27.0265 0000991  79.1139 280.9935 14.79940698 22299
